{
  "type": "FeatureCollection",
  "features": [
    {
      "type": "Feature",
      "geometry": {
        "type": "Polygon",
        "coordinates": [
          [
            [
              -72.5365313475807,
              43.23220981228363
            ],
            [
              -72.58589974832412,
              43.232473990531986
            ],
            [
              -72.57320486610263,
              43.26838159094807
            ],
            [
              -72.56049472985899,
              43.30428773572566
            ],
            [
              -72.49881046912978,
              43.294947281961555
            ],
            [
              -72.4865568878856,
              43.28588091393849
            ],
            [
              -72.48696139052564,
              43.249909685424
            ],
            [
              -72.5365313475807,
              43.23220981228363
            ]
          ]
        ]
      },
      "properties": {
        "track_id": "1",
        "timestamp": "2026-09-29T02:00:58.756000",
        "radar_site": "KCXX",
        "centroid_lat": 43.26818127350127,
        "centroid_lon": -72.53615656272838,
        "pixel_count": 51,
        "area_km2": 51.0,
        "length_km": 10.268388952056492,
        "width_km": 7.4026089793959295,
        "orientation_deg": 47.25271078053976,
        "aspect_ratio": 1.387131075089477,
        "max_reflectivity_dbz": 27.898048400878906,
        "mean_reflectivity_dbz": 23.35799924065085,
        "core_pixel_count": 0,
        "touches_grid_edge": false,
        "core_fraction": 0.0,
        "motion_speed_kt": 5.327646954785815,
        "motion_dir_deg": 270.4468653403392,
        "motion_direction_deg": 270.4468653403392,
        "age_scans": 2,
        "reflectivity_trend_dbz_per_hr": -25.757205412059736,
        "area_growth_fraction": -0.15,
        "probability_15min": null,
        "probability_30min": null,
        "probability_45min": null,
        "probability_60min": null,
        "probability_trend": "unknown",
        "drivers": [],
        "environment_status": "complete",
        "environment": {
          "source": "RAP",
          "source_valid_time_utc": "2026-09-29T01:00:00+00:00",
          "age_minutes": 60.97926666666667,
          "fields": {
            "visibility_m": 18000.0,
            "gust_ms": 14.706282615661621,
            "surface_temperature_k": null,
            "cape_jkg": 300.0,
            "cin_jkg": 0.063323974609375,
            "pwat_mm": null,
            "mlcape_jkg": null,
            "mlcin_jkg": null,
            "mucape_jkg": null,
            "mucin_jkg": null,
            "srh01_m2s2": 28.364578247070312,
            "srh03_m2s2": -2.5939559936523438,
            "shear_u_0_6km_ms": null,
            "shear_v_0_6km_ms": null,
            "u10_ms": null,
            "v10_ms": null,
            "temperature_2m_k": null,
            "dewpoint_2m_k": null,
            "rh_2m_pct": null,
            "shear_0_6km_ms": null
          },
          "missing_fields": [],
          "status": "complete"
        },
        "data_quality": "good",
        "model_version": "live-object-foundation-v2"
      }
    },
    {
      "type": "Feature",
      "geometry": {
        "type": "Polygon",
        "coordinates": [
          [
            [
              -73.27939544062126,
              44.45698454648015
            ],
            [
              -73.29201433027998,
              44.46596458570792
            ],
            [
              -73.29205318484965,
              44.48395099754221
            ],
            [
              -73.27944788344814,
              44.483964172433105
            ],
            [
              -73.26684257665187,
              44.48397596049678
            ],
            [
              -73.25423726506024,
              44.483986361732086
            ],
            [
              -73.24163194927267,
              44.48399537613804
            ],
            [
              -73.21641353496099,
              44.47501602646535
            ],
            [
              -73.21640576563779,
              44.46602280847124
            ],
            [
              -73.2289974949326,
              44.45702335361247
            ],
            [
              -73.27939544062126,
              44.45698454648015
            ]
          ]
        ]
      },
      "properties": {
        "track_id": "15",
        "timestamp": "2026-09-29T02:00:58.756000",
        "radar_site": "KCXX",
        "centroid_lat": 44.474993148484145,
        "centroid_lon": -73.2542236631184,
        "pixel_count": 23,
        "area_km2": 23.0,
        "length_km": 7.658359536215648,
        "width_km": 4.028275011687518,
        "orientation_deg": 98.71777407240207,
        "aspect_ratio": 1.9011511165439077,
        "max_reflectivity_dbz": 25.512996673583984,
        "mean_reflectivity_dbz": 22.80294177843177,
        "core_pixel_count": 0,
        "touches_grid_edge": false,
        "core_fraction": 0.0,
        "motion_speed_kt": null,
        "motion_dir_deg": null,
        "motion_direction_deg": null,
        "age_scans": 1,
        "reflectivity_trend_dbz_per_hr": null,
        "area_growth_fraction": null,
        "probability_15min": null,
        "probability_30min": null,
        "probability_45min": null,
        "probability_60min": null,
        "probability_trend": "unknown",
        "drivers": [],
        "environment_status": "complete",
        "environment": {
          "source": "RAP",
          "source_valid_time_utc": "2026-09-29T01:00:00+00:00",
          "age_minutes": 60.97926666666667,
          "fields": {
            "visibility_m": 18000.0,
            "gust_ms": 14.706282615661621,
            "surface_temperature_k": null,
            "cape_jkg": 300.0,
            "cin_jkg": 0.063323974609375,
            "pwat_mm": null,
            "mlcape_jkg": null,
            "mlcin_jkg": null,
            "mucape_jkg": null,
            "mucin_jkg": null,
            "srh01_m2s2": 28.364578247070312,
            "srh03_m2s2": -2.5939559936523438,
            "shear_u_0_6km_ms": null,
            "shear_v_0_6km_ms": null,
            "u10_ms": null,
            "v10_ms": null,
            "temperature_2m_k": null,
            "dewpoint_2m_k": null,
            "rh_2m_pct": null,
            "shear_0_6km_ms": null
          },
          "missing_fields": [],
          "status": "complete"
        },
        "data_quality": "good",
        "model_version": "live-object-foundation-v2"
      }
    },
    {
      "type": "Feature",
      "geometry": {
        "type": "Polygon",
        "coordinates": [
          [
            [
              -73.29213099077798,
              44.51992382114387
            ],
            [
              -73.30478691326893,
              44.53789565305151
            ],
            [
              -73.30482979541677,
              44.55588205873944
            ],
            [
              -73.2669827729781,
              44.564914860155035
            ],
            [
              -73.25435993690463,
              44.56492528084046
            ],
            [
              -73.24173709661167,
              44.564934312103205
            ],
            [
              -73.191241804479,
              44.55596332319505
            ],
            [
              -73.17861895293989,
              44.546972186751354
            ],
            [
              -73.2038451660942,
              44.52898019336317
            ],
            [
              -73.22906553294615,
              44.519975870496005
            ],
            [
              -73.29213099077798,
              44.51992382114387
            ]
          ]
        ]
      },
      "properties": {
        "track_id": "16",
        "timestamp": "2026-09-29T02:00:58.756000",
        "radar_site": "KCXX",
        "centroid_lat": 44.537945641162324,
        "centroid_lon": -73.25431899534719,
        "pixel_count": 46,
        "area_km2": 46.0,
        "length_km": 10.769025150832135,
        "width_km": 5.8536978449664785,
        "orientation_deg": 89.05670965997854,
        "aspect_ratio": 1.8396961093733741,
        "max_reflectivity_dbz": 26.331247329711914,
        "mean_reflectivity_dbz": 23.132177643153977,
        "core_pixel_count": 0,
        "touches_grid_edge": false,
        "core_fraction": 0.0,
        "motion_speed_kt": 37.67509234681881,
        "motion_dir_deg": 351.81688438350363,
        "motion_direction_deg": 351.81688438350363,
        "age_scans": 1,
        "reflectivity_trend_dbz_per_hr": 1.160381823378209,
        "area_growth_fraction": 1.3,
        "probability_15min": null,
        "probability_30min": null,
        "probability_45min": null,
        "probability_60min": null,
        "probability_trend": "unknown",
        "drivers": [],
        "environment_status": "complete",
        "environment": {
          "source": "RAP",
          "source_valid_time_utc": "2026-09-29T01:00:00+00:00",
          "age_minutes": 60.97926666666667,
          "fields": {
            "visibility_m": 18000.0,
            "gust_ms": 14.706282615661621,
            "surface_temperature_k": null,
            "cape_jkg": 300.0,
            "cin_jkg": 0.063323974609375,
            "pwat_mm": null,
            "mlcape_jkg": null,
            "mlcin_jkg": null,
            "mucape_jkg": null,
            "mucin_jkg": null,
            "srh01_m2s2": 28.364578247070312,
            "srh03_m2s2": -2.5939559936523438,
            "shear_u_0_6km_ms": null,
            "shear_v_0_6km_ms": null,
            "u10_ms": null,
            "v10_ms": null,
            "temperature_2m_k": null,
            "dewpoint_2m_k": null,
            "rh_2m_pct": null,
            "shear_0_6km_ms": null
          },
          "missing_fields": [],
          "status": "complete"
        },
        "data_quality": "good",
        "model_version": "live-object-foundation-v2"
      }
    }
  ],
  "metadata": {
    "scan_time_utc": "2026-09-29T02:00:58.756000",
    "source_file": "KCXX20260929_020058_V06",
    "fields": {
      "reflectivity": "reflectivity",
      "velocity": "velocity",
      "spectrum_width": "spectrum_width",
      "zdr": "differential_reflectivity",
      "rhohv": "cross_correlation_ratio",
      "kdp": null
    },
    "object_count": 3,
    "probability_status": "not_scored",
    "environment_status": "attached",
    "environment_source": "RAP",
    "radar_origin": [
      44.511,
      -73.166
    ]
  }
}